{
  "type": "FeatureCollection",
  "features": [
    {
      "type": "Feature",
      "properties": {
        "norad_id": 31033,
        "name": "FENGYUN 1C DEB",
        "group": "fengyun-1c-debris",
        "lat": -60.84967535670931,
        "lon": -11.573616424181845,
        "alt_km": 901.2649512557155,
        "timestamp": "2025-12-20T22:39:10.906053+00:00",
        "meta_object_name": "FENGYUN 1C DEB",
        "meta_object_id": "1999-025BEB",
        "meta_epoch": "2025-12-20T10:11:24.568224",
        "meta_mean_motion": 14.27460065,
        "meta_eccentricity": 0.0154245,
        "meta_inclination": 98.4391,
        "meta_ra_of_asc_node": 332.4878,
        "meta_arg_of_pericenter": 88.0364,
        "meta_mean_anomaly": 63.9503,
        "meta_ephemeris_type": 0,
        "meta_classification_type": "U",
        "meta_norad_cat_id": 31033,
        "meta_element_set_no": 999,
        "meta_rev_at_epoch": 97455,
        "meta_bstar": 0.00014596172,
        "meta_mean_motion_dot": 3.64e-06,
        "meta_mean_motion_ddot": 0,
        "tle_line1": "1 31033U 99025BEB 25354.42458991  .00000364  00000+0  14596-3 0  9996",
        "tle_line2": "2 31033  98.4391 332.4878 0154245  88.0364  63.9503 14.27460065974552"
      },
      "geometry": {
        "type": "Point",
        "coordinates": [
          -11.573616424181845,
          -60.84967535670931
        ]
      }
    },
    {
      "type": "Feature",
      "properties": {
        "norad_id": 31036,
        "name": "FENGYUN 1C DEB",
        "group": "fengyun-1c-debris",
        "lat": 26.987522840181306,
        "lon": 97.2829803886869,
        "alt_km": 809.700960739071,
        "timestamp": "2025-12-20T22:39:10.906062+00:00",
        "meta_object_name": "FENGYUN 1C DEB",
        "meta_object_id": "1999-025BEE",
        "meta_epoch": "2025-12-18T06:02:23.919072",
        "meta_mean_motion": 14.49084458,
        "meta_eccentricity": 0.01375082,
        "meta_inclination": 98.9148,
        "meta_ra_of_asc_node": 99.0243,
        "meta_arg_of_pericenter": 247.8939,
        "meta_mean_anomaly": 142.2947,
        "meta_ephemeris_type": 0,
        "meta_classification_type": "U",
        "meta_norad_cat_id": 31036,
        "meta_element_set_no": 999,
        "meta_rev_at_epoch": 57387,
        "meta_bstar": 0.00021841941,
        "meta_mean_motion_dot": 8.77e-06,
        "meta_mean_motion_ddot": 0,
        "tle_line1": "1 31036U 99025BEE 25352.25166573  .00000877  00000+0  21842-3 0  9991",
        "tle_line2": "2 31036  98.9148  99.0243 0137508 247.8939 142.2947 14.49084458573873"
      },
      "geometry": {
        "type": "Point",
        "coordinates": [
          97.2829803886869,
          26.987522840181306
        ]
      }
    },
    {
      "type": "Feature",
      "properties": {
        "norad_id": 31038,
        "name": "FENGYUN 1C DEB",
        "group": "fengyun-1c-debris",
        "lat": 80.92711814709565,
        "lon": -4.274637469175948,
        "alt_km": 756.7131211897122,
        "timestamp": "2025-12-20T22:39:10.906071+00:00",
        "meta_object_name": "FENGYUN 1C DEB",
        "meta_object_id": "1999-025BEG",
        "meta_epoch": "2025-12-17T16:10:31.099584",
        "meta_mean_motion": 14.45844316,
        "meta_eccentricity": 0.0084304,
        "meta_inclination": 99.014,
        "meta_ra_of_asc_node": 75.9992,
        "meta_arg_of_pericenter": 213.7595,
        "meta_mean_anomaly": 145.821,
        "meta_ephemeris_type": 0,
        "meta_classification_type": "U",
        "meta_norad_cat_id": 31038,
        "meta_element_set_no": 999,
        "meta_rev_at_epoch": 98306,
        "meta_bstar": 0.00045261885,
        "meta_mean_motion_dot": 1.626e-05,
        "meta_mean_motion_ddot": 0,
        "tle_line1": "1 31038U 99025BEG 25351.67397106  .00001626  00000+0  45262-3 0  9991",
        "tle_line2": "2 31038  99.0140  75.9992 0084304 213.7595 145.8210 14.45844316983069"
      },
      "geometry": {
        "type": "Point",
        "coordinates": [
          -4.274637469175948,
          80.92711814709565
        ]
      }
    },
    {
      "type": "Feature",
      "properties": {
        "norad_id": 31040,
        "name": "FENGYUN 1C DEB",
        "group": "fengyun-1c-debris",
        "lat": -4.498974052486489,
        "lon": -14.728773567662335,
        "alt_km": 881.6424701837577,
        "timestamp": "2025-12-20T22:39:10.906080+00:00",
        "meta_object_name": "FENGYUN 1C DEB",
        "meta_object_id": "1999-025BEJ",
        "meta_epoch": "2025-12-18T10:26:06.254304",
        "meta_mean_motion": 14.17678932,
        "meta_eccentricity": 0.00625828,
        "meta_inclination": 98.6582,
        "meta_ra_of_asc_node": 342.1389,
        "meta_arg_of_pericenter": 177.6674,
        "meta_mean_anomaly": 339.7033,
        "meta_ephemeris_type": 0,
        "meta_classification_type": "U",
        "meta_norad_cat_id": 31040,
        "meta_element_set_no": 999,
        "meta_rev_at_epoch": 96787,
        "meta_bstar": 0.00024558532,
        "meta_mean_motion_dot": 4.67e-06,
        "meta_mean_motion_ddot": 0,
        "tle_line1": "1 31040U 99025BEJ 25352.43479461  .00000467  00000+0  24559-3 0  9992",
        "tle_line2": "2 31040  98.6582 342.1389 0062582 177.6674 339.7033 14.17678932967872"
      },
      "geometry": {
        "type": "Point",
        "coordinates": [
          -14.728773567662335,
          -4.498974052486489
        ]
      }
    },
    {
      "type": "Feature",
      "properties": {
        "norad_id": 31041,
        "name": "FENGYUN 1C DEB",
        "group": "fengyun-1c-debris",
        "lat": -57.719868591529504,
        "lon": -170.98971576429727,
        "alt_km": 805.8082561780993,
        "timestamp": "2025-12-20T22:39:10.906089+00:00",
        "meta_object_name": "FENGYUN 1C DEB",
        "meta_object_id": "1999-025BEK",
        "meta_epoch": "2025-12-20T01:11:55.931424",
        "meta_mean_motion": 14.17898364,
        "meta_eccentricity": 0.00871545,
        "meta_inclination": 99.204,
        "meta_ra_of_asc_node": 22.9571,
        "meta_arg_of_pericenter": 299.3991,
        "meta_mean_anomaly": 59.8503,
        "meta_ephemeris_type": 0,
        "meta_classification_type": "U",
        "meta_norad_cat_id": 31041,
        "meta_element_set_no": 999,
        "meta_rev_at_epoch": 95593,
        "meta_bstar": 0.0014183161,
        "meta_mean_motion_dot": 2.962e-05,
        "meta_mean_motion_ddot": 0,
        "tle_line1": "1 31041U 99025BEK 25354.04995291  .00002962  00000+0  14183-2 0  9999",
        "tle_line2": "2 31041  99.2040  22.9571 0087154 299.3991  59.8503 14.17898364955930"
      },
      "geometry": {
        "type": "Point",
        "coordinates": [
          -170.98971576429727,
          -57.719868591529504
        ]
      }
    },
    {
      "type": "Feature",
      "properties": {
        "norad_id": 31043,
        "name": "FENGYUN 1C DEB",
        "group": "fengyun-1c-debris",
        "lat": -30.21338446684843,
        "lon": 17.67345843975807,
        "alt_km": 841.4461143195485,
        "timestamp": "2025-12-20T22:39:10.906098+00:00",
        "meta_object_name": "FENGYUN 1C DEB",
        "meta_object_id": "1999-025BEM",
        "meta_epoch": "2025-12-20T07:32:08.571840",
        "meta_mean_motion": 14.08440648,
        "meta_eccentricity": 0.0041045,
        "meta_inclination": 98.7638,
        "meta_ra_of_asc_node": 11.9078,
        "meta_arg_of_pericenter": 342.6131,
        "meta_mean_anomaly": 34.9768,
        "meta_ephemeris_type": 0,
        "meta_classification_type": "U",
        "meta_norad_cat_id": 31043,
        "meta_element_set_no": 999,
        "meta_rev_at_epoch": 96094,
        "meta_bstar": 0.00030738724,
        "meta_mean_motion_dot": 4.88e-06,
        "meta_mean_motion_ddot": 0,
        "tle_line1": "1 31043U 99025BEM 25354.31398810  .00000488  00000+0  30739-3 0  9992",
        "tle_line2": "2 31043  98.7638  11.9078 0041045 342.6131  34.9768 14.08440648960948"
      },
      "geometry": {
        "type": "Point",
        "coordinates": [
          17.67345843975807,
          -30.21338446684843
        ]
      }
    },
    {
      "type": "Feature",
      "properties": {
        "norad_id": 31046,
        "name": "FENGYUN 1C DEB",
        "group": "fengyun-1c-debris",
        "lat": -14.756045794720915,
        "lon": 117.73657649202201,
        "alt_km": 685.7486148679964,
        "timestamp": "2025-12-20T22:39:10.906107+00:00",
        "meta_object_name": "FENGYUN 1C DEB",
        "meta_object_id": "1999-025BEQ",
        "meta_epoch": "2025-12-20T06:35:25.489248",
        "meta_mean_motion": 14.64068194,
        "meta_eccentricity": 0.00453608,
        "meta_inclination": 98.9679,
        "meta_ra_of_asc_node": 114.6247,
        "meta_arg_of_pericenter": 79.3941,
        "meta_mean_anomaly": 340.8209,
        "meta_ephemeris_type": 0,
        "meta_classification_type": "U",
        "meta_norad_cat_id": 31046,
        "meta_element_set_no": 999,
        "meta_rev_at_epoch": 96753,
        "meta_bstar": 0.0023309047,
        "meta_mean_motion_dot": 0.00012381,
        "meta_mean_motion_ddot": 0,
        "tle_line1": "1 31046U 99025BEQ 25354.27460057  .00012381  00000+0  23309-2 0  9992",
        "tle_line2": "2 31046  98.9679 114.6247 0045360  79.3941 340.8209 14.64068194967539"
      },
      "geometry": {
        "type": "Point",
        "coordinates": [
          117.73657649202201,
          -14.756045794720915
        ]
      }
    }
  ]
}